ONEWEB-0331             
1 49198U 21083N   24191.29656709  .00000096  00000+0  21154-3 0  9996
2 49198  87.9152 116.3805 0001945  83.9936 276.1417 13.18688399136718
ONEWEB-0333             
1 49199U 21083P   24191.45064196  .00000108  00000+0  26178-3 0  9993
2 49199  87.8932 101.1284 0002028  73.6032 286.5320 13.13469574138002
ONEWEB-0334             
1 49200U 21083Q   24191.61823588  .00000003  00000+0 -23838-4 0  9998
2 49200  87.9188  55.2508 0002469  68.2328 291.9068 13.20773404143399
ONEWEB-0335             
1 49201U 21083R   24191.44587546  .00000208  00000+0  53524-3 0  9991
2 49201  87.8934 101.1179 0001795  76.9947 283.1383 13.13470875138011
ONEWEB-0336             
1 49202U 21083S   24191.49189432  .00000143  00000+0  35721-3 0  9996
2 49202  87.8930 101.1047 0002083  77.1109 283.0253 13.13470343138011
ONEWEB-0337             
1 49203U 21083T   24191.50128361  .00000310  00000+0  81489-3 0  9991
2 49203  87.8930 101.1014 0001879  79.1399 280.9941 13.13469631138019
ONEWEB-0338             
1 49204U 21083U   24191.62460241 -.00000346  00000+0 -88237-3 0  9990
2 49204  87.9193  55.2343 0001882  69.6320 290.5015 13.20774405143413
ONEWEB-0339             
1 49205U 21083V   24191.51252847  .00000288  00000+0  75406-3 0  9997
2 49205  87.8928 101.0941 0001836  76.1578 283.9755 13.13468760137999
