<?xml version="1.0" encoding="UTF-8"?>
<ndm xmlns:xsi="http://www.w3.org/2001/XMLSchema-instance" xsi:noNamespaceSchemaLocation="https://sanaregistry.org/r/ndmxml_unqualified/ndmxml-2.0.0-master-2.0.xsd">
<omm id="CCSDS_OMM_VERS" version="2.0">
<header><CREATION_DATE/><ORIGINATOR/></header><body><segment><metadata><OBJECT_NAME>ONEWEB-0331</OBJECT_NAME><OBJECT_ID>2021-083N</OBJECT_ID><CENTER_NAME>EARTH</CENTER_NAME><REF_FRAME>TEME</REF_FRAME><TIME_SYSTEM>UTC</TIME_SYSTEM><MEAN_ELEMENT_THEORY>SGP4</MEAN_ELEMENT_THEORY></metadata><data><meanElements><EPOCH>2024-07-09T07:07:03.396576</EPOCH><MEAN_MOTION>13.18688399</MEAN_MOTION><ECCENTRICITY>.0001945</ECCENTRICITY><INCLINATION>87.9152</INCLINATION><RA_OF_ASC_NODE>116.3805</RA_OF_ASC_NODE><ARG_OF_PERICENTER>83.9936</ARG_OF_PERICENTER><MEAN_ANOMALY>276.1417</MEAN_ANOMALY></meanElements><tleParameters><EPHEMERIS_TYPE>0</EPHEMERIS_TYPE><CLASSIFICATION_TYPE>U</CLASSIFICATION_TYPE><NORAD_CAT_ID>49198</NORAD_CAT_ID><ELEMENT_SET_NO>999</ELEMENT_SET_NO><REV_AT_EPOCH>13671</REV_AT_EPOCH><BSTAR>.21154E-3</BSTAR><MEAN_MOTION_DOT>.96E-6</MEAN_MOTION_DOT><MEAN_MOTION_DDOT>0</MEAN_MOTION_DDOT></tleParameters></data></segment></body></omm>
<omm id="CCSDS_OMM_VERS" version="2.0">
<header><CREATION_DATE/><ORIGINATOR/></header><body><segment><metadata><OBJECT_NAME>ONEWEB-0333</OBJECT_NAME><OBJECT_ID>2021-083P</OBJECT_ID><CENTER_NAME>EARTH</CENTER_NAME><REF_FRAME>TEME</REF_FRAME><TIME_SYSTEM>UTC</TIME_SYSTEM><MEAN_ELEMENT_THEORY>SGP4</MEAN_ELEMENT_THEORY></metadata><data><meanElements><EPOCH>2024-07-09T10:48:55.465344</EPOCH><MEAN_MOTION>13.13469574</MEAN_MOTION><ECCENTRICITY>.0002028</ECCENTRICITY><INCLINATION>87.8932</INCLINATION><RA_OF_ASC_NODE>101.1284</RA_OF_ASC_NODE><ARG_OF_PERICENTER>73.6032</ARG_OF_PERICENTER><MEAN_ANOMALY>286.5320</MEAN_ANOMALY></meanElements><tleParameters><EPHEMERIS_TYPE>0</EPHEMERIS_TYPE><CLASSIFICATION_TYPE>U</CLASSIFICATION_TYPE><NORAD_CAT_ID>49199</NORAD_CAT_ID><ELEMENT_SET_NO>999</ELEMENT_SET_NO><REV_AT_EPOCH>13800</REV_AT_EPOCH><BSTAR>.26178E-3</BSTAR><MEAN_MOTION_DOT>.108E-5</MEAN_MOTION_DOT><MEAN_MOTION_DDOT>0</MEAN_MOTION_DDOT></tleParameters></data></segment></body></omm>
<omm id="CCSDS_OMM_VERS" version="2.0">
<header><CREATION_DATE/><ORIGINATOR/></header><body><segment><metadata><OBJECT_NAME>ONEWEB-0334</OBJECT_NAME><OBJECT_ID>2021-083Q</OBJECT_ID><CENTER_NAME>EARTH</CENTER_NAME><REF_FRAME>TEME</REF_FRAME><TIME_SYSTEM>UTC</TIME_SYSTEM><MEAN_ELEMENT_THEORY>SGP4</MEAN_ELEMENT_THEORY></metadata><data><meanElements><EPOCH>2024-07-09T14:50:15.580032</EPOCH><MEAN_MOTION>13.20773404</MEAN_MOTION><ECCENTRICITY>.0002469</ECCENTRICITY><INCLINATION>87.9188</INCLINATION><RA_OF_ASC_NODE>55.2508</RA_OF_ASC_NODE><ARG_OF_PERICENTER>68.2328</ARG_OF_PERICENTER><MEAN_ANOMALY>291.9068</MEAN_ANOMALY></meanElements><tleParameters><EPHEMERIS_TYPE>0</EPHEMERIS_TYPE><CLASSIFICATION_TYPE>U</CLASSIFICATION_TYPE><NORAD_CAT_ID>49200</NORAD_CAT_ID><ELEMENT_SET_NO>999</ELEMENT_SET_NO><REV_AT_EPOCH>14339</REV_AT_EPOCH><BSTAR>-.23838E-4</BSTAR><MEAN_MOTION_DOT>.3E-7</MEAN_MOTION_DOT><MEAN_MOTION_DDOT>0</MEAN_MOTION_DDOT></tleParameters></data></segment></body></omm>
<omm id="CCSDS_OMM_VERS" version="2.0">
<header><CREATION_DATE/><ORIGINATOR/></header><body><segment><metadata><OBJECT_NAME>ONEWEB-0335</OBJECT_NAME><OBJECT_ID>2021-083R</OBJECT_ID><CENTER_NAME>EARTH</CENTER_NAME><REF_FRAME>TEME</REF_FRAME><TIME_SYSTEM>UTC</TIME_SYSTEM><MEAN_ELEMENT_THEORY>SGP4</MEAN_ELEMENT_THEORY></metadata><data><meanElements><EPOCH>2024-07-09T10:42:03.639744</EPOCH><MEAN_MOTION>13.13470875</MEAN_MOTION><ECCENTRICITY>.0001795</ECCENTRICITY><INCLINATION>87.8934</INCLINATION><RA_OF_ASC_NODE>101.1179</RA_OF_ASC_NODE><ARG_OF_PERICENTER>76.9947</ARG_OF_PERICENTER><MEAN_ANOMALY>283.1383</MEAN_ANOMALY></meanElements><tleParameters><EPHEMERIS_TYPE>0</EPHEMERIS_TYPE><CLASSIFICATION_TYPE>U</CLASSIFICATION_TYPE><NORAD_CAT_ID>49201</NORAD_CAT_ID><ELEMENT_SET_NO>999</ELEMENT_SET_NO><REV_AT_EPOCH>13801</REV_AT_EPOCH><BSTAR>.53524E-3</BSTAR><MEAN_MOTION_DOT>.208E-5</MEAN_MOTION_DOT><MEAN_MOTION_DDOT>0</MEAN_MOTION_DDOT></tleParameters></data></segment></body></omm>
<omm id="CCSDS_OMM_VERS" version="2.0">
<header><CREATION_DATE/><ORIGINATOR/></header><body><segment><metadata><OBJECT_NAME>ONEWEB-0336</OBJECT_NAME><OBJECT_ID>2021-083S</OBJECT_ID><CENTER_NAME>EARTH</CENTER_NAME><REF_FRAME>TEME</REF_FRAME><TIME_SYSTEM>UTC</TIME_SYSTEM><MEAN_ELEMENT_THEORY>SGP4</MEAN_ELEMENT_THEORY></metadata><data><meanElements><EPOCH>2024-07-09T11:48:19.669248</EPOCH><MEAN_MOTION>13.13470343</MEAN_MOTION><ECCENTRICITY>.0002083</ECCENTRICITY><INCLINATION>87.8930</INCLINATION><RA_OF_ASC_NODE>101.1047</RA_OF_ASC_NODE><ARG_OF_PERICENTER>77.1109</ARG_OF_PERICENTER><MEAN_ANOMALY>283.0253</MEAN_ANOMALY></meanElements><tleParameters><EPHEMERIS_TYPE>0</EPHEMERIS_TYPE><CLASSIFICATION_TYPE>U</CLASSIFICATION_TYPE><NORAD_CAT_ID>49202</NORAD_CAT_ID><ELEMENT_SET_NO>999</ELEMENT_SET_NO><REV_AT_EPOCH>13801</REV_AT_EPOCH><BSTAR>.35721E-3</BSTAR><MEAN_MOTION_DOT>.143E-5</MEAN_MOTION_DOT><MEAN_MOTION_DDOT>0</MEAN_MOTION_DDOT></tleParameters></data></segment></body></omm>
<omm id="CCSDS_OMM_VERS" version="2.0">
<header><CREATION_DATE/><ORIGINATOR/></header><body><segment><metadata><OBJECT_NAME>ONEWEB-0337</OBJECT_NAME><OBJECT_ID>2021-083T</OBJECT_ID><CENTER_NAME>EARTH</CENTER_NAME><REF_FRAME>TEME</REF_FRAME><TIME_SYSTEM>UTC</TIME_SYSTEM><MEAN_ELEMENT_THEORY>SGP4</MEAN_ELEMENT_THEORY></metadata><data><meanElements><EPOCH>2024-07-09T12:01:50.903904</EPOCH><MEAN_MOTION>13.13469631</MEAN_MOTION><ECCENTRICITY>.0001879</ECCENTRICITY><INCLINATION>87.8930</INCLINATION><RA_OF_ASC_NODE>101.1014</RA_OF_ASC_NODE><ARG_OF_PERICENTER>79.1399</ARG_OF_PERICENTER><MEAN_ANOMALY>280.9941</MEAN_ANOMALY></meanElements><tleParameters><EPHEMERIS_TYPE>0</EPHEMERIS_TYPE><CLASSIFICATION_TYPE>U</CLASSIFICATION_TYPE><NORAD_CAT_ID>49203</NORAD_CAT_ID><ELEMENT_SET_NO>999</ELEMENT_SET_NO><REV_AT_EPOCH>13801</REV_AT_EPOCH><BSTAR>.81489E-3</BSTAR><MEAN_MOTION_DOT>.31E-5</MEAN_MOTION_DOT><MEAN_MOTION_DDOT>0</MEAN_MOTION_DDOT></tleParameters></data></segment></body></omm>
<omm id="CCSDS_OMM_VERS" version="2.0">
<header><CREATION_DATE/><ORIGINATOR/></header><body><segment><metadata><OBJECT_NAME>ONEWEB-0338</OBJECT_NAME><OBJECT_ID>2021-083U</OBJECT_ID><CENTER_NAME>EARTH</CENTER_NAME><REF_FRAME>TEME</REF_FRAME><TIME_SYSTEM>UTC</TIME_SYSTEM><MEAN_ELEMENT_THEORY>SGP4</MEAN_ELEMENT_THEORY></metadata><data><meanElements><EPOCH>2024-07-09T14:59:25.648224</EPOCH><MEAN_MOTION>13.20774405</MEAN_MOTION><ECCENTRICITY>.0001882</ECCENTRICITY><INCLINATION>87.9193</INCLINATION><RA_OF_ASC_NODE>55.2343</RA_OF_ASC_NODE><ARG_OF_PERICENTER>69.6320</ARG_OF_PERICENTER><MEAN_ANOMALY>290.5015</MEAN_ANOMALY></meanElements><tleParameters><EPHEMERIS_TYPE>0</EPHEMERIS_TYPE><CLASSIFICATION_TYPE>U</CLASSIFICATION_TYPE><NORAD_CAT_ID>49204</NORAD_CAT_ID><ELEMENT_SET_NO>999</ELEMENT_SET_NO><REV_AT_EPOCH>14341</REV_AT_EPOCH><BSTAR>-.88237E-3</BSTAR><MEAN_MOTION_DOT>-.346E-5</MEAN_MOTION_DOT><MEAN_MOTION_DDOT>0</MEAN_MOTION_DDOT></tleParameters></data></segment></body></omm>
<omm id="CCSDS_OMM_VERS" version="2.0">
<header><CREATION_DATE/><ORIGINATOR/></header><body><segment><metadata><OBJECT_NAME>ONEWEB-0339</OBJECT_NAME><OBJECT_ID>2021-083V</OBJECT_ID><CENTER_NAME>EARTH</CENTER_NAME><REF_FRAME>TEME</REF_FRAME><TIME_SYSTEM>UTC</TIME_SYSTEM><MEAN_ELEMENT_THEORY>SGP4</MEAN_ELEMENT_THEORY></metadata><data><meanElements><EPOCH>2024-07-09T12:18:02.459808</EPOCH><MEAN_MOTION>13.13468760</MEAN_MOTION><ECCENTRICITY>.0001836</ECCENTRICITY><INCLINATION>87.8928</INCLINATION><RA_OF_ASC_NODE>101.0941</RA_OF_ASC_NODE><ARG_OF_PERICENTER>76.1578</ARG_OF_PERICENTER><MEAN_ANOMALY>283.9755</MEAN_ANOMALY></meanElements><tleParameters><EPHEMERIS_TYPE>0</EPHEMERIS_TYPE><CLASSIFICATION_TYPE>U</CLASSIFICATION_TYPE><NORAD_CAT_ID>49205</NORAD_CAT_ID><ELEMENT_SET_NO>999</ELEMENT_SET_NO><REV_AT_EPOCH>13799</REV_AT_EPOCH><BSTAR>.75406E-3</BSTAR><MEAN_MOTION_DOT>.288E-5</MEAN_MOTION_DOT><MEAN_MOTION_DDOT>0</MEAN_MOTION_DDOT></tleParameters></data></segment></body></omm>

</ndm>
